{
    "links": {
        "self": "http://www.neowsapp.com/rest/v1/neo/3367759?api_key=iIulBulltgU6a56xZRHN4H3l9WmuAYTsLGpBGhQ2"
    },
    "id": "3367759",
    "neo_reference_id": "3367759",
    "name": "(2007 CJ15)",
    "designation": "2007 CJ15",
    "nasa_jpl_url": "http://ssd.jpl.nasa.gov/sbdb.cgi?sstr=3367759",
    "absolute_magnitude_h": 24.4,
    "estimated_diameter": {
        "kilometers": {
            "estimated_diameter_min": 0.0350392641,
            "estimated_diameter_max": 0.0783501764
        },
        "meters": {
            "estimated_diameter_min": 35.0392641108,
            "estimated_diameter_max": 78.3501764334
        },
        "miles": {
            "estimated_diameter_min": 0.0217723826,
            "estimated_diameter_max": 0.0486845275
        },
        "feet": {
            "estimated_diameter_min": 114.9582192654,
            "estimated_diameter_max": 257.0543928497
        }
    },
    "is_potentially_hazardous_asteroid": false,
    "close_approach_data": [
        {
            "close_approach_date": "2007-02-18",
            "close_approach_date_full": "2007-Feb-18 16:03",
            "epoch_date_close_approach": 1171814580000,
            "relative_velocity": {
                "kilometers_per_second": "9.2514430667",
                "kilometers_per_hour": "33305.1950400473",
                "miles_per_hour": "20694.552995856"
            },
            "miss_distance": {
                "astronomical": "0.0379081563",
                "lunar": "14.7462728007",
                "kilometers": "5670979.438107081",
                "miles": "3523783.2228404778"
            },
            "orbiting_body": "Earth"
        },
        {
            "close_approach_date": "2081-01-31",
            "close_approach_date_full": "2081-Jan-31 20:41",
            "epoch_date_close_approach": 3505581660000,
            "relative_velocity": {
                "kilometers_per_second": "14.7709928268",
                "kilometers_per_hour": "53175.574176421",
                "miles_per_hour": "33041.2338542322"
            },
            "miss_distance": {
                "astronomical": "0.2717083464",
                "lunar": "105.6945467496",
                "kilometers": "40646989.882662168",
                "miles": "25256868.3365391984"
            },
            "orbiting_body": "Earth"
        }
    ],
    "orbital_data": {
        "orbit_id": "12",
        "orbit_determination_date": "2017-04-06 09:07:06",
        "first_observation_date": "2007-02-09",
        "last_observation_date": "2007-02-19",
        "data_arc_in_days": 10,
        "observations_used": 38,
        "orbit_uncertainty": "8",
        "minimum_orbit_intersection": ".0370928",
        "jupiter_tisserand_invariant": "4.542",
        "epoch_osculation": "2454146.5",
        "eccentricity": ".3123176845273452",
        "semi_major_axis": "1.458076971897851",
        "inclination": "14.50529203886289",
        "ascending_node_longitude": "325.6104875989603",
        "orbital_period": "643.0860714952681",
        "perihelion_distance": "1.002693748172071",
        "perihelion_argument": "206.5215702959743",
        "aphelion_distance": "1.913460195623631",
        "perihelion_time": "2454170.849897145424",
        "mean_anomaly": "346.3689117819478",
        "mean_motion": ".5598006487109073",
        "equinox": "J2000",
        "orbit_class": {
            "orbit_class_type": "APO",
            "orbit_class_description": "Near-Earth asteroid orbits which cross the Earth’s orbit similar to that of 1862 Apollo",
            "orbit_class_range": "a (semi-major axis) > 1.0 AU; q (perihelion) < 1.017 AU"
        }
    },
    "is_sentry_object": false
}